SL-12 R/B(2)            
1 15772U 85042D   26183.80046735  .00000007  00000+0  24763-4 0  9996
2 15772  71.1061 204.5291 0037020 304.4131 228.3769 14.22008879130755
SL-14 R/B               
1 15945U 85069B   26183.71849566  .00000521  00000+0  55878-4 0  9992
2 15945  82.5273 276.7596 0019117 166.7944 193.3777 14.86527810189929
SL-16 R/B               
1 16182U 85097B   26183.68082346 -.00000084  00000+0 -18005-4 0  9995
2 16182  71.0030 258.4596 0005257  77.0182  85.0815 14.16614760103517
SL-14 R/B               
1 16496U 86006B   26183.66358343  .00000570  00000+0  57855-4 0  9999
2 16496  82.5272 151.5491 0074756 251.1120 108.1982 14.86959965166296
COSMOS 1743             
1 16719U 86034A   26183.84952282  .00061301  00000+0  54110-3 0  9999
2 16719  82.5283 312.0623 0004891 216.1233 143.9698 15.68445434198249
SL-14 R/B               
1 16792U 86046B   26183.84570573  .00000534  00000+0  58518-4 0  9990
2 16792  82.4829 331.3783 0022429 203.9965 156.0208 14.85682982143509
SL-14 R/B               
1 16882U 86055B   26183.82795850  .00000448  00000+0  48705-4 0  9996
2 16882  82.5198  18.4261 0017733 314.6163  55.9862 14.85733622136463
AJISAI (EGS)            
1 16908U 86061A   26183.78874654 -.00000089  00000+0  59473-4 0  9993
2 16908  50.0090  99.4206 0011131 220.2137 179.8154 12.44516669482333
SL-14 R/B               
1 17567U 87024B   26183.83725372  .00000499  00000+0  53913-4 0  9990
2 17567  82.5287 344.5388 0016911 236.7603 123.1994 14.86224406105237
COSMOS 1833             
1 17589U 87027A   26183.82354863  .00000256  00000+0  16223-3 0  9992
2 17589  70.9209  84.0034 0023435  29.0395 331.2024 14.13061245 26586
SL-16 R/B               
1 17590U 87027B   26183.74463146  .00000013  00000+0  30338-4 0  9995
2 17590  71.0033  34.0446 0006994 295.4831  64.5569 14.17175058 31647
SL-14 R/B               
1 17912U 87038B   26183.75677619  .00000436  00000+0  47565-4 0  9997
2 17912  82.5003 188.4062 0020228 140.6675 219.6015 14.85454815 96310
COSMOS 1844             
1 17973U 87041A   26183.87631527  .00000396  00000+0  23033-3 0  9997
2 17973  70.8977 151.2130 0032066 212.6798 147.2341 14.14572883 19872
SL-14 R/B               
1 18153U 87055B   26183.57870786  .00000425  00000+0  46082-4 0  9995
2 18153  82.4983 240.7202 0020449 358.1069   2.0066 14.85720977 86998
COSMOS 1867             
1 18187U 87060A   26183.85192727 -.00000028  00000+0  27092-4 0  9991
2 18187  65.0117 344.1877 0016864 282.1308  77.7887 14.31517529 36427
SL-14 R/B               
1 18749U 88001B   26183.71652075  .00000443  00000+0  48249-4 0  9990
2 18749  82.5132  87.1643 0017065 213.9437 146.0689 14.85620294 59109
COSMOS 1933             
1 18958U 88020A   26183.84995522  .00004444  00000+0  21203-3 0  9999
2 18958  82.5136 136.9243 0005100 138.5153 221.6469 15.18819715 67704
SL-3 R/B                
1 19046U 88032B   26183.70447023  .00004843  00000+0  22010-3 0  9994
2 19046  97.5264 166.7308 0025190 188.5061 171.5751 15.20952930 69583
SL-16 R/B               
1 19120U 88039B   26183.69298361  .00000089  00000+0  64942-4 0  9990
2 19120  71.0128 185.3704 0021286 169.4519 190.7057 14.19631044974705
COSMOS 1953             
1 19210U 88050A   26183.32196958  .00008125  00000+0  27648-3 0  9992
2 19210  82.5063  42.7696 0012317  80.1340 280.1290 15.30186907 55308
SL-8 R/B                
1 19257U 88053B   26183.49983377  .00000233  00000+0  83933-4 0  9995
2 19257  74.0475 260.8316 0019307  50.5253 322.9631 14.38973580993116
COSMOS 1975             
1 19573U 88093A   26183.46412340  .00007648  00000+0  26555-3 0  9997
2 19573  82.5189   2.3310 0012391 121.8676 238.3772 15.29526290 36941
SL-14 R/B               
1 19574U 88093B   26183.78125035  .00000470  00000+0  51173-4 0  9996
2 19574  82.5321 294.0051 0021129  21.4200 138.7988 14.85753516 18103
SL-16 R/B               
1 19650U 88102B   26183.61543834  .00000057  00000+0  53113-4 0  9992
2 19650  71.0003 269.6762 0014978 204.0874 155.9550 14.16169454943160
INTERCOSMOS 24          
1 20261U 89080A   26183.50334775  .00000703  00000+0  20095-3 0  9998
2 20261  82.6049  29.6777 1187868  26.3958 339.2942 12.59682968681252
SL-14 R/B               
1 20262U 89080C   26183.76205417  .00000167  00000+0  50474-4 0  9996
2 20262  82.5942  99.3016 1228380 281.7492  64.8613 12.50576082674538
DELTA 1 R/B             
1 20323U 89089B   26183.46225990  .00000360  00000+0  97100-4 0  9990
2 20323  97.0633  12.5760 0070350 119.3340 241.4911 14.50741173912374
ARIANE 40 R/B           
1 20443U 90005H   26183.61004237  .00000295  00000+0  10719-3 0  9996
2 20443  98.2952 240.7462 0009436 212.6608 147.3998 14.39935633909344
DELTA 2 R/B(1)          
1 20453U 90008B   26182.94304548  .00101038  00000+0  67237-3 0  9997
2 20453  35.6000 136.7735 0064180 253.2131 106.1561 15.71224893944029
COSMOS 2058             
1 20465U 90010A   26183.75316345  .00003322  00000+0  19118-3 0  9993
2 20465  82.4692 294.0048 0008402 301.0088  59.0316 15.12108284959628
SL-14 R/B               
1 20466U 90010B   26183.67971809  .00000457  00000+0  52422-4 0  9999
2 20466  82.5024 159.3952 0018212 282.0178  77.8996 14.83656641945533
